CALSPHERE 1             
1 00900U 64063C   12352.57993686  .00000396  00000-0  42990-3 0  8729
2 00900  90.1386 347.1012 0028348   7.3680 352.7886 13.71363762394740
CALSPHERE 2             
1 00902U 64063E   12351.85888690  .00000075  00000-0  10000-3 0  7550
2 00902  90.1390 349.5930 0018947 132.5309 227.7448 13.52533649190207
LCS 1                   
1 01361U 65034C   12352.46775617  .00000009  00000-0  10000-3 0  4139
2 01361  32.1445   1.7418 0004893 285.4191  74.5766  9.89283333722045
TEMPSAT 1               
1 01512U 65065E   12352.85882397  .00000060  00000-0  10000-3 0  8128
2 01512  89.7870 274.6062 0071800  49.2065 311.5274 13.33311373303141
CALSPHERE 4(A)          
1 01520U 65065H   12353.22810794  .00000059  00000-0  10000-3 0  9861
2 01520  90.1468 104.3409 0069260 321.5435  38.0783 13.35473793305085
OPS 5712 (P/L 160)      
1 02826U 67053A   12353.17776316  .00002270  00000-0  71999-3 0  7831
2 02826  69.9333 100.2609 0006905 213.2682 146.8014 14.41260899351462
OPS 5712 (P/L 153)      
1 02874U 67053H   12352.21874405  .00000003  00000-0  40814-4 0  2780
2 02874  69.9721 234.3262 0005678 129.9586 230.2020 13.96056302319046
SURCAL 150B             
1 02909U 67053J   12353.20687901  .00001905  00000-0  50237-3 0  9836
2 02909  69.9533 237.1124 0006641 279.4986  80.5399 14.50455131358244
RIGIDSPHERE 2 (LCS 4)   
1 05398U 71067E   12352.08283390  .00000574  00000-0  20341-3 0  6628
2 05398  87.6235 258.4703 0063369 296.7110  62.7613 14.31974647167511
